OBJECT_NAME,OBJECT_ID,EPOCH,MEAN_MOTION,ECCENTRICITY,INCLINATION,RA_OF_ASC_NODE,ARG_OF_PERICENTER,MEAN_ANOMALY,EPHEMERIS_TYPE,CLASSIFICATION_TYPE,NORAD_CAT_ID,ELEMENT_SET_NO,REV_AT_EPOCH,BSTAR,MEAN_MOTION_DOT,MEAN_MOTION_DDOT
SL-14 R/B,1990-018B,2026-07-15T03:53:27.028032,14.82234060,.0017029,82.5217,103.9612,36.9701,323.2683,0,U,20511,999,94146,.23882E-4,.215E-5,0
HST,1990-037B,2026-07-14T12:32:33.993024,15.31056678,.0002196,28.4724,253.7048,97.3468,262.7378,0,U,20580,999,79276,.10435E-3,.3452E-4,0
SL-16 R/B,1990-046B,2026-07-15T00:18:08.569152,14.15024634,.0012412,70.9985,30.5073,114.6976,245.5440,0,U,20625,999,86640,.14973E-3,.243E-5,0
COSMOS 2084,1990-055A,2026-07-15T05:04:28.860096,15.06223666,.0008094,62.7883,260.4320,318.1052,41.9428,0,U,20663,999,95552,.67556E-4,.792E-5,0
SL-6 R/B(2),1990-055D,2026-07-15T04:08:34.398240,15.04087749,.0045152,62.7805,180.1376,8.9914,351.1984,0,U,20666,999,95736,.83471E-4,.976E-5,0
SL-8 R/B,1990-078B,2026-07-14T22:34:57.241056,14.93569347,.0343494,82.9038,136.5415,304.3988,52.5190,0,U,20775,999,82826,.279E-3,.9844E-4,0
SL-8 R/B,1991-006B,2026-07-15T04:24:45.897984,13.77509240,.0023438,82.9408,75.2045,40.5676,72.3777,0,U,21088,999,78162,.78547E-4,.94E-6,0
OKEAN-3,1991-039A,2026-07-15T02:56:24.725760,15.05434102,.0012389,82.5142,213.2887,254.9834,105.0022,0,U,21397,999,88420,.12062E-3,.1761E-4,0
COSMOS 2151,1991-042A,2026-07-15T03:14:25.664064,15.00512899,.0011968,82.4981,320.7089,355.7327,4.3793,0,U,21422,999,88230,.51639E-4,.679E-5,0
SL-14 R/B,1991-042B,2026-07-15T04:11:26.666016,14.81918037,.0016976,82.4932,100.6508,176.9822,183.1498,0,U,21423,999,87195,.1973E-4,.18E-5,0
ERS-1,1991-050A,2026-07-15T00:53:37.563648,14.39533005,.003184,98.7796,217.4153,182.2386,177.8663,0,U,21574,999,83405,.65395E-4,.159E-5,0
ARIANE 40 R/B,1991-050F,2026-07-15T03:11:00.369888,14.42971868,.0004161,98.1863,243.4589,61.5815,298.5794,0,U,21610,999,83737,.48798E-4,.122E-5,0
INTERCOSMOS 25,1991-086A,2026-07-15T02:14:08.195424,12.12240264,.1484573,82.6008,232.9228,202.1453,150.8485,0,U,21819,999,51212,.22355E-4,.127E-5,0
SL-8 R/B,1992-008B,2026-07-14T23:23:56.271840,13.75983767,.0035654,82.9271,173.1270,137.2071,277.5363,0,U,21876,999,72692,.83571E-4,.97E-6,0
SL-8 R/B,1992-020B,2026-07-15T03:24:53.206272,13.75550235,.0027971,82.9280,59.0896,303.6661,171.3333,0,U,21938,999,71865,-.4807E-6,.14E-6,0
USA 81,1992-023A,2026-07-15T03:32:17.349792,14.32404929,.0001978,85.0051,57.8662,64.8606,295.2791,0,U,21949,999,11303,.31871E-4,.106E-5,0
COSMOS 2219,1992-076A,2026-07-15T03:09:47.903616,14.14108734,.0018272,71.0612,111.6562,357.5487,2.5543,0,U,22219,999,73639,-.87373E-4,-.214E-5,0
SL-16 R/B,1992-076B,2026-07-15T04:35:55.483296,14.16877441,.0015032,71.0005,279.7891,262.1749,121.8692,0,U,22220,999,73989,.96722E-4,.146E-5,0
COSMOS 2221,1992-080A,2026-07-14T22:52:48.129312,14.96603595,.0015699,82.5046,157.1620,120.9670,239.3097,0,U,22236,999,79982,.70335E-4,.829E-5,0
SL-16 R/B,1992-093B,2026-07-15T03:45:51.890112,14.15465838,.0002272,71.0217,96.6759,134.9579,225.1729,0,U,22285,999,73119,-.95111E-4,-.233E-5,0
COSMOS 2228,1992-094A,2026-07-15T03:35:12.382368,14.97675370,.0016309,82.5188,115.2594,229.2827,130.6980,0,U,22286,999,79513,.67926E-4,.824E-5,0
SL-16 R/B,1993-016B,2026-07-14T17:10:47.447616,14.15312394,.00088645,71.0085,308.3875,138.8661,221.3132,0,U,22566,999,72014,.11429397E-3,.175E-5,0
COSMOS 2242,1993-024A,2026-07-15T01:19:03.378144,14.96984680,.0014659,82.5198,144.8810,233.1274,126.8605,0,U,22626,999,79944,.7458E-4,.885E-5,0
SL-16 R/B,1993-059B,2026-07-15T03:46:36.803424,14.17249496,.0016645,70.9901,102.3205,8.5782,351.5623,0,U,22803,999,69759,-.4442E-4,-.138E-5,0
ARIANE 40 R/B,1993-061H,2026-07-15T03:16:39.293760,14.32918513,.0009488,98.4807,262.4112,265.9416,94.0684,0,U,22830,999,71235,.42911E-4,.74E-6,0
COSMOS 2278,1994-023A,2026-07-15T04:22:40.439136,14.14393250,.0009636,71.0523,268.3530,205.5698,154.4949,0,U,23087,999,66283,.24626E-4,0,0
SL-16 R/B,1994-023B,2026-07-15T04:07:12.404640,14.15024483,.0001397,70.9984,163.1610,128.3543,231.7705,0,U,23088,999,66412,.8102E-4,.109E-5,0
SL-16 R/B,1994-074B,2026-07-15T03:38:15.640224,14.79524266,.0007166,97.6986,221.7062,154.4144,293.1085,0,U,23343,999,70609,.32029E-4,.19E-5,0
SL-16 R/B,1994-077B,2026-07-15T02:29:06.065952,14.15574265,.0004084,70.9822,84.4324,303.4333,56.6399,0,U,23405,999,63426,-.1681E-4,-.81E-6,0
ARIANE 40+ R/B,1995-021B,2026-07-15T04:46:06.687264,14.39847553,.0007901,98.4401,265.8674,116.4731,304.4114,0,U,23561,999,63759,.50721E-4,.116E-5,0
SL-16 R/B,1995-058B,2026-07-15T04:29:45.221280,14.15508809,.0014613,71.0210,272.5720,282.7792,77.1698,0,U,23705,999,58589,.1123E-3,.172E-5,0
