SL-14 R/B               
1 20511U 90018B   26196.16211838  .00000215  00000+0  23882-4 0  9995
2 20511  82.5217 103.9612 0017029  36.9701 323.2683 14.82234060941464
HST                     
1 20580U 90037B   26195.52261566  .00003452  00000+0  10435-3 0  9999
2 20580  28.4724 253.7048 0002196  97.3468 262.7378 15.31056678792766
SL-16 R/B               
1 20625U 90046B   26196.01259918  .00000243  00000+0  14973-3 0  9998
2 20625  70.9985  30.5073 0012412 114.6976 245.5440 14.15024634866405
COSMOS 2084             
1 20663U 90055A   26196.21144514  .00000792  00000+0  67556-4 0  9992
2 20663  62.7883 260.4320 0008094 318.1052  41.9428 15.06223666955522
SL-6 R/B(2)             
1 20666U 90055D   26196.17262035  .00000976  00000+0  83471-4 0  9997
2 20666  62.7805 180.1376 0045152   8.9914 351.1984 15.04087749957360
SL-8 R/B                
1 20775U 90078B   26195.94094029  .00009844  00000+0  27900-3 0  9990
2 20775  82.9038 136.5415 0343494 304.3988  52.5190 14.93569347828269
SL-8 R/B                
1 21088U 91006B   26196.18386456  .00000094  00000+0  78547-4 0  9997
2 21088  82.9408  75.2045 0023438  40.5676  72.3777 13.77509240781628
OKEAN-3                 
1 21397U 91039A   26196.12250840  .00001761  00000+0  12062-3 0  9998
2 21397  82.5142 213.2887 0012389 254.9834 105.0022 15.05434102884202
COSMOS 2151             
1 21422U 91042A   26196.13501926  .00000679  00000+0  51639-4 0  9997
2 21422  82.4981 320.7089 0011968 355.7327   4.3793 15.00512899882308
SL-14 R/B               
1 21423U 91042B   26196.17461419  .00000180  00000+0  19730-4 0  9997
2 21423  82.4932 100.6508 0016976 176.9822 183.1498 14.81918037871952
ERS-1                   
1 21574U 91050A   26196.03724032  .00000159  00000+0  65395-4 0  9995
2 21574  98.7796 217.4153 0031840 182.2386 177.8663 14.39533005834057
ARIANE 40 R/B           
1 21610U 91050F   26196.13264317  .00000122  00000+0  48798-4 0  9990
2 21610  98.1863 243.4589 0004161  61.5815 298.5794 14.42971868837372
INTERCOSMOS 25          
1 21819U 91086A   26196.09315041  .00000127  00000+0  22355-4 0  9992
2 21819  82.6008 232.9228 1484573 202.1453 150.8485 12.12240264512120
SL-8 R/B                
1 21876U 92008B   26195.97495685  .00000097  00000+0  83571-4 0  9992
2 21876  82.9271 173.1270 0035654 137.2071 277.5363 13.75983767726925
SL-8 R/B                
1 21938U 92020B   26196.14228248  .00000014  00000+0 -48070-6 0  9991
2 21938  82.9280  59.0896 0027971 303.6661 171.3333 13.75550235718656
USA 81                  
1 21949U 92023A   26196.14742303  .00000106  00000+0  31871-4 0  9999
2 21949  85.0051  57.8662 0001978  64.8606 295.2791 14.32404929113036
COSMOS 2219             
1 22219U 92076A   26196.13180444 -.00000214  00000+0 -87373-4 0  9999
2 22219  71.0612 111.6562 0018272 357.5487   2.5543 14.14108734736396
SL-16 R/B               
1 22220U 92076B   26196.19161439  .00000146  00000+0  96722-4 0  9990
2 22220  71.0005 279.7891 0015032 262.1749 121.8692 14.16877441739896
COSMOS 2221             
1 22236U 92080A   26195.95333483  .00000829  00000+0  70335-4 0  9995
2 22236  82.5046 157.1620 0015699 120.9670 239.3097 14.96603595799825
SL-16 R/B               
1 22285U 92093B   26196.15685058 -.00000233  00000+0 -95111-4 0  9994
2 22285  71.0217  96.6759 0002272 134.9579 225.1729 14.15465838731196
COSMOS 2228             
1 22286U 92094A   26196.14944887  .00000824  00000+0  67926-4 0  9990
2 22286  82.5188 115.2594 0016309 229.2827 130.6980 14.97675370795133
SL-16 R/B               
1 22566U 93016B   26195.71582694  .00000175  00000+0  11429-3 0  9997
2 22566  71.0085 308.3875 0008864 138.8661 221.3132 14.15312394720148
COSMOS 2242             
1 22626U 93024A   26196.05490021  .00000885  00000+0  74580-4 0  9999
2 22626  82.5198 144.8810 0014659 233.1274 126.8605 14.96984680799442
SL-16 R/B               
1 22803U 93059B   26196.15737041 -.00000138  00000+0 -44420-4 0  9994
2 22803  70.9901 102.3205 0016645   8.5782 351.5623 14.17249496697596
ARIANE 40 R/B           
1 22830U 93061H   26196.13656590  .00000074  00000+0  42911-4 0  9994
2 22830  98.4807 262.4112 0009488 265.9416  94.0684 14.32918513712359
COSMOS 2278             
1 23087U 94023A   26196.18241249  .00000000  00000+0  24626-4 0  9996
2 23087  71.0523 268.3530 0009636 205.5698 154.4949 14.14393250662839
SL-16 R/B               
1 23088U 94023B   26196.17167135  .00000109  00000+0  81020-4 0  9998
2 23088  70.9984 163.1610 0001397 128.3543 231.7705 14.15024483664120
SL-16 R/B               
1 23343U 94074B   26196.15156991  .00000190  00000+0  32029-4 0  9999
2 23343  97.6986 221.7062 0007166 154.4144 293.1085 14.79524266706091
SL-16 R/B               
1 23405U 94077B   26196.10354243 -.00000081  00000+0 -16810-4 0  9997
2 23405  70.9822  84.4324 0004084 303.4333  56.6399 14.15574265634263
ARIANE 40+ R/B          
1 23561U 95021B   26196.19868851  .00000116  00000+0  50721-4 0  9990
2 23561  98.4401 265.8674 0007901 116.4731 304.4114 14.39847553637599
SL-16 R/B               
1 23705U 95058B   26196.18732895  .00000172  00000+0  11230-3 0  9990
2 23705  71.0210 272.5720 0014613 282.7792  77.1698 14.15508809585891
